$$SOE
2460728.500000000, A.D. 2025-Feb-22 00:00:00.0000, -4.099938318737478E+08, -1.262812578669880E+08, 8.380116233741112E+07,
2460735.500000000, A.D. 2025-Mar-01 00:00:00.0000, -4.067421293691980E+08, -1.360947735482177E+08, 8.524683468255267E+07,
2460742.500000000, A.D. 2025-Mar-08 00:00:00.0000, -4.032542960989212E+08, -1.458293396691627E+08, 8.664301843850508E+07,
2460749.500000000, A.D. 2025-Mar-15 00:00:00.0000, -3.995326449542047E+08, -1.554794089778094E+08, 8.798896550434114E+07,
2460756.500000000, A.D. 2025-Mar-22 00:00:00.0000, -3.955796119952884E+08, -1.650394918938747E+08, 8.928395730530711E+07,
2460763.500000000, A.D. 2025-Mar-29 00:00:00.0000, -3.913977555394807E+08, -1.745041606955038E+08, 9.052730493274225E+07,
2460770.500000000, A.D. 2025-Apr-05 00:00:00.0000, -3.869897535341229E+08, -1.838680527719539E+08, 9.171834919040279E+07,
2460777.500000000, A.D. 2025-Apr-12 00:00:00.0000, -3.823584011382692E+08, -1.931258728356580E+08, 9.285646073081300E+07,
2460784.500000000, A.D. 2025-Apr-19 00:00:00.0000, -3.775066086973702E+08, -2.022723949750165E+08, 9.394104022483519E+07,
2460791.500000000, A.D. 2025-Apr-26 00:00:00.0000, -3.724373998380792E+08, -2.113024647533894E+08, 9.497151852184358E+07,
2460798.500000000, A.D. 2025-May-03 00:00:00.0000, -3.671539095704466E+08, -2.202110013383616E+08, 9.594735679175480E+07,
2460805.500000000, A.D. 2025-May-10 00:00:00.0000, -3.616593823713563E+08, -2.289929996554008E+08, 9.686804664798352E+07,
2460812.500000000, A.D. 2025-May-17 00:00:00.0000, -3.559571702154378E+08, -2.376435326086852E+08, 9.773311024590507E+07,
2460819.500000000, A.D. 2025-May-24 00:00:00.0000, -3.500507303822005E+08, -2.461577534242770E+08, 9.854210033760101E+07,
2460826.500000000, A.D. 2025-May-31 00:00:00.0000, -3.439436226235052E+08, -2.545308978046380E+08, 9.929460027079679E+07,
2460833.500000000, A.D. 2025-Jun-07 00:00:00.0000, -3.376395060931519E+08, -2.627582846892252E+08, 9.999022406754427E+07,
2460840.500000000, A.D. 2025-Jun-14 00:00:00.0000, -3.311421384029524E+08, -2.708353162878617E+08, 1.006286167449296E+08,
2460847.500000000, A.D. 2025-Jun-21 00:00:00.0000, -3.244553755888264E+08, -2.787574806594660E+08, 1.012094544990849E+08,
2460854.500000000, A.D. 2025-Jun-28 00:00:00.0000, -3.175831698602665E+08, -2.865203550727192E+08, 1.017324446105775E+08,
2460861.500000000, A.D. 2025-Jul-05 00:00:00.0000, -3.105295666507356E+08, -2.941196079918694E+08, 1.021973253868659E+08,
2460868.500000000, A.D. 2025-Jul-12 00:00:00.0000, -3.032987021594507E+08, -3.015510004922854E+08, 1.026038661849144E+08,
2460875.500000000, A.D. 2025-Jul-19 00:00:00.0000, -2.958948011940690E+08, -3.088103876810480E+08, 1.029518674491862E+08,
2460882.500000000, A.D. 2025-Jul-26 00:00:00.0000, -2.883221751039577E+08, -3.158937201802971E+08, 1.032411607411797E+08,
2460889.500000000, A.D. 2025-Aug-02 00:00:00.0000, -2.805852197389649E+08, -3.227970456528904E+08, 1.034716087567299E+08,
2460896.500000000, A.D. 2025-Aug-09 00:00:00.0000, -2.726884134107601E+08, -3.295165103857074E+08, 1.036431053282544E+08,
2460903.500000000, A.D. 2025-Aug-16 00:00:00.0000, -2.646363147800800E+08, -3.360483609941379E+08, 1.037555754001213E+08,
2460910.500000000, A.D. 2025-Aug-23 00:00:00.0000, -2.564335603773453E+08, -3.423889462314821E+08, 1.038089749519829E+08,
2460917.500000000, A.D. 2025-Aug-30 00:00:00.0000, -2.480848614277064E+08, -3.485347181892921E+08, 1.038032908985317E+08,
2460924.500000000, A.D. 2025-Sep-06 00:00:00.0000, -2.395950013982513E+08, -3.544822318880913E+08, 1.037385411775374E+08,
2460931.500000000, A.D. 2025-Sep-13 00:00:00.0000, -2.309688359371106E+08, -3.602281457413164E+08, 1.036147749763778E+08,
2460938.500000000, A.D. 2025-Sep-20 00:00:00.0000, -2.222112919307621E+08, -3.657692245382991E+08, 1.034320726629306E+08,
2460945.500000000, A.D. 2025-Sep-27 00:00:00.0000, -2.133273646216274E+08, -3.711023418360358E+08, 1.031905455789354E+08,
2460952.500000000, A.D. 2025-Oct-04 00:00:00.0000, -2.043221148030770E+08, -3.762244812204060E+08, 1.028903359252765E+08,
2460959.500000000, A.D. 2025-Oct-11 00:00:00.0000, -1.952006664651782E+08, -3.811327373790983E+08, 1.025316166962471E+08,
2460966.500000000, A.D. 2025-Oct-18 00:00:00.0000, -1.859682046066860E+08, -3.858243172600911E+08, 1.021145916139668E+08,
2460973.500000000, A.D. 2025-Oct-25 00:00:00.0000, -1.766299730727524E+08, -3.902965413046815E+08, 1.016394950507813E+08,
2460980.500000000, A.D. 2025-Nov-01 00:00:00.0000, -1.671912723782330E+08, -3.945468447400513E+08, 1.011065919373302E+08,
2460987.500000000, A.D. 2025-Nov-08 00:00:00.0000, -1.576574574817965E+08, -3.985727789632571E+08, 1.005161776507635E+08,
2460994.500000000, A.D. 2025-Nov-15 00:00:00.0000, -1.480339353629466E+08, -4.023720130754270E+08, 9.986857786493899E+07,
2461001.500000000, A.D. 2025-Nov-22 00:00:00.0000, -1.383261619993312E+08, -4.059423353461128E+08, 9.916414834375045E+07,
2461008.500000000, A.D. 2025-Nov-29 00:00:00.0000, -1.285396388977960E+08, -4.092816534724645E+08, 9.840327478436892E+07,
2461015.500000000, A.D. 2025-Dec-06 00:00:00.0000, -1.186799114567731E+08, -4.123879937679396E+08, 9.758637290771329E+07,
2461022.500000000, A.D. 2025-Dec-13 00:00:00.0000, -1.087525687259231E+08, -4.152595026492388E+08, 9.671388848015013E+07,
2461029.500000000, A.D. 2025-Dec-20 00:00:00.0000, -9.876324106949981E+07, -4.178944493973104E+08, 9.578629702909264E+07,
2461036.500000000, A.D. 2025-Dec-27 00:00:00.0000, -8.871759680695967E+07, -4.202912275995312E+08, 9.480410356210440E+07,
2461043.500000000, A.D. 2026-Jan-03 00:00:00.0000, -7.862133928872074E+07, -4.224483558862861E+08, 9.376784237207890E+07,
2461050.500000000, A.D. 2026-Jan-10 00:00:00.0000, -6.848020429521215E+07, -4.243644786392448E+08, 9.267807686235142E+07,
2461057.500000000, A.D. 2026-Jan-17 00:00:00.0000, -5.829995752485269E+07, -4.260383667624716E+08, 9.153539936305369E+07,
2461064.500000000, A.D. 2026-Jan-24 00:00:00.0000, -4.808639209208272E+07, -4.274689184938636E+08, 9.034043093403403E+07,
2461071.500000000, A.D. 2026-Jan-31 00:00:00.0000, -3.784532601188227E+07, -4.286551602644193E+08, 8.909382115233696E+07,
2461078.500000000, A.D. 2026-Feb-07 00:00:00.0000, -2.758259960967193E+07, -4.295962476622535E+08, 8.779624787452118E+07,
2461085.500000000, A.D. 2026-Feb-14 00:00:00.0000, -1.730407260408372E+07, -4.302914665155378E+08, 8.644841694961585E+07,
2461092.500000000, A.D. 2026-Feb-21 00:00:00.0000, -7.015620475427248E+06, -4.307402335157151E+08, 8.505106189424530E+07,
2461099.500000000, A.D. 2026-Feb-28 00:00:00.0000, 3.276868795096988E+06, -4.309420952254037E+08, 8.360494372326848E+07,
2461106.500000000, A.D. 2026-Mar-07 00:00:00.0000, 1.356749555720097E+07, -4.308967274181820E+08, 8.211085096454035E+07,
2461113.500000000, A.D. 2026-Mar-14 00:00:00.0000, 2.385034967130243E+07, -4.306039370808234E+08, 8.056959941185772E+07,
2461120.500000000, A.D. 2026-Mar-21 00:00:00.0000, 3.411951382032516E+07, -4.300636641795757E+08, 7.898203168943751E+07,
2461127.500000000, A.D. 2026-Mar-28 00:00:00.0000, 4.436906694437517E+07, -4.292759821615338E+08, 7.734901689650774E+07,
2461134.500000000, A.D. 2026-Apr-04 00:00:00.0000, 5.459308719456452E+07, -4.282410981557345E+08, 7.567145030845915E+07,
2461141.500000000, A.D. 2026-Apr-11 00:00:00.0000, 6.478565467988641E+07, -4.269593532325912E+08, 7.395025307989717E+07,
2461148.500000000, A.D. 2026-Apr-18 00:00:00.0000, 7.494085416644888E+07, -4.254312227267639E+08, 7.218637193421523E+07,
2461155.500000000, A.D. 2026-Apr-25 00:00:00.0000, 8.505277777519307E+07, -4.236573166068697E+08, 7.038077883634706E+07,
2461162.500000000, A.D. 2026-May-02 00:00:00.0000, 9.511552770958818E+07, -4.216383799198084E+08, 6.853447064317816E+07,
2461169.500000000, A.D. 2026-May-09 00:00:00.0000, 1.051232191389617E+08, -4.193752933746512E+08, 6.664846871477906E+07,
2461176.500000000, A.D. 2026-May-16 00:00:00.0000, 1.150699836161407E+08, -4.168690739270867E+08, 6.472381846334350E+07,
2461183.500000000, A.D. 2026-May-23 00:00:00.0000, 1.249499730812423E+08, -4.141208743414986E+08, 6.276158891881202E+07,
2461190.500000000, A.D. 2026-May-30 00:00:00.0000, 1.347573623724413E+08, -4.111319814097338E+08, 6.076287252768114E+07,
2461197.500000000, A.D. 2026-Jun-06 00:00:00.0000, 1.444863499257594E+08, -4.079038160973047E+08, 5.872878494577189E+07,
2461204.500000000, A.D. 2026-Jun-13 00:00:00.0000, 1.541311603302086E+08, -4.044379354156336E+08, 5.666046450432748E+07,
2461211.500000000, A.D. 2026-Jun-20 00:00:00.0000, 1.636860482376181E+08, -4.007360330933860E+08, 5.455907163435556E+07,
2461218.500000000, A.D. 2026-Jun-27 00:00:00.0000, 1.731453019282549E+08, -3.967999393859864E+08, 5.242578837696192E+07,
2461225.500000000, A.D. 2026-Jul-04 00:00:00.0000, 1.825032465311245E+08, -3.926316207967945E+08, 5.026181791583711E+07,
2461232.500000000, A.D. 2026-Jul-11 00:00:00.0000, 1.917542471516418E+08, -3.882331798400412E+08, 4.806838409717268E+07,
2461239.500000000, A.D. 2026-Jul-18 00:00:00.0000, 2.008927119978936E+08, -3.836068548175541E+08, 4.584673092984726E+07,
2461246.500000000, A.D. 2026-Jul-25 00:00:00.0000, 2.099130955283894E+08, -3.787550196036624E+08, 4.359812206301226E+07,
2461253.500000000, A.D. 2026-Aug-01 00:00:00.0000, 2.188099016684211E+08, -3.736801834829997E+08, 4.132384023195849E+07,
2461260.500000000, A.D. 2026-Aug-08 00:00:00.0000, 2.275776873099683E+08, -3.683849910741879E+08, 3.902518664929020E+07,
2461267.500000000, A.D. 2026-Aug-15 00:00:00.0000, 2.362110665106411E+08, -3.628722218877749E+08, 3.670348034040569E+07,
2461274.500000000, A.D. 2026-Aug-22 00:00:00.0000, 2.447047146298753E+08, -3.571447882972741E+08, 3.436005759332070E+07,
2461281.500000000, A.D. 2026-Aug-29 00:00:00.0000, 2.530533701102168E+08, -3.512057332952204E+08, 3.199627162045893E+07,
2461288.500000000, A.D. 2026-Sep-05 00:00:00.0000, 2.612518360332158E+08, -3.450582308987122E+08, 2.961349200149810E+07,
2461295.500000000, A.D. 2026-Sep-12 00:00:00.0000, 2.692949839022315E+08, -3.387055867042494E+08, 2.721310388536578E+07,
$$EOE